! Orbits computed with differential corrections
format  = 'OEF2.0'       ! file format
rectype = 'ML'           ! record type (1L/ML)
refsys  = ECLM J2000     ! default reference system
END_OF_HEADER
410777
! Equinoctial elements: a, e*sin(LP), e*cos(LP), tan(i/2)*sin(LN), tan(i/2)*cos(LN), mean long.
 EQU   1.1626729655215629E+00  -0.460663793788630   0.174881261102494    0.004551532855151    0.027004949901399  25.7134988502311
 MJD     56013.440131620 TDT
 MAG  22.130  0.150
! Non-grav parameters: model used, actual number in use, dimension, list of solve for parameters to be currently determined
 LSP   1  2    7    2
! Vector of dynamical parameters.
 NGR   0.00000000000000E+00 -1.73452109284020E-05
! A priori value and standard deviation (only Yarkovsky effect)
 APR YAR   0.00000000000000E+00  3.25000000000000E-04
! RMS    2.23435E-09   3.24388E-08   6.16972E-08   6.46816E-09   5.19933E-08   6.23879E-06   3.25873E-04
! EIG   3.16388E-10   3.73617E-09   1.23444E-08   2.25802E-08   5.22095E-08   1.25320E-07   3.25873E-04
! WEA   0.00000   0.00001  -0.00002  -0.00000   0.00000   0.00005   1.00000
 COV   4.992313013269981E-18 -1.104365731435545E-17  4.780233647742059E-17
 COV   1.993882536456756E-18 -6.566388634211529E-18  2.444757678965904E-15
 COV   3.618191987106669E-13  1.052272584763409E-15 -1.635436791901656E-15
 COV   2.850754340738613E-17 -2.966010715886439E-16 -1.760023590149050E-13
 COV   1.504994658158666E-12  3.806545238170600E-15  6.139740146019224E-17
 COV   2.793981113194634E-17  3.393763206538154E-13 -1.823533605236961E-12
 COV   4.183705029695272E-17  1.598442040227286E-16 -6.681290694929267E-16
 COV  -3.478838737698349E-14  2.703306439944901E-15  2.857320427022455E-14
 COV   2.237925424267532E-13  3.892245974380866E-11  3.254044983141718E-10
 COV   1.061933498395167E-07
 NOR   9.862711898792608E+18  6.924193738736352E+17 -6.926005633888873E+17
 NOR   1.168043280528567E+17  9.387451893649194E+15  9.244737270614208E+15
 NOR  -8.362014092305347E+13  5.786608397476874E+16 -4.710499740478444E+16
 NOR  -5.955247704885714E+15  2.206903419107873E+15  6.779364738958196E+14
 NOR  -6.072140648939632E+12  5.124152438827583E+16 -1.631030385081740E+16
 NOR   1.354060829329712E+14 -6.663592916404026E+14  5.943575487082865E+12
 NOR   6.826410418609143E+16 -5.438266142934997E+15  1.208902555275498E+14
 NOR  -9.302673959825796E+11  8.755287670638894E+14  8.223407065563958E+12
 NOR  -8.976154928100099E+10  8.986131456679404E+12 -8.006250048827396E+10
 NOR   7.276599207557260E+08
